[{"OBJECT_NAME":"NEXSAT-1","OBJECT_ID":"2024-024E","EPOCH":"2026-03-09T22:47:24.778176","MEAN_MOTION":15.32166372,"ECCENTRICITY":0.00099795,"INCLINATION":97.3124,"RA_OF_ASC_NODE":144.1918,"ARG_OF_PERICENTER":108.5709,"MEAN_ANOMALY":251.6617,"EPHEMERIS_TYPE":0,"CLASSIFICATION_TYPE":"U","NORAD_CAT_ID":58921,"ELEMENT_SET_NO":999,"REV_AT_EPOCH":11669,"BSTAR":0.00031433612,"MEAN_MOTION_DOT":9.702e-5,"MEAN_MOTION_DDOT":0},{"OBJECT_NAME":"STARLINK-32285","OBJECT_ID":"2024-138A","EPOCH":"2026-03-09T21:27:37.995264","MEAN_MOTION":15.30218306,"ECCENTRICITY":7.239e-5,"INCLINATION":53.1598,"RA_OF_ASC_NODE":308.3223,"ARG_OF_PERICENTER":85.7035,"MEAN_ANOMALY":274.4049,"EPHEMERIS_TYPE":0,"CLASSIFICATION_TYPE":"U","NORAD_CAT_ID":60355,"ELEMENT_SET_NO":999,"REV_AT_EPOCH":9066,"BSTAR":-0.00019412974,"MEAN_MOTION_DOT":-6.107e-5,"MEAN_MOTION_DDOT":0}]
